STARLINK-32493          
1 62025U 24213T   26068.57414652  .00012623  00000+0  43778-3 0  9998
2 62025  53.1579 168.9104 0001071  90.6637 269.4487 15.30184851 73136
JINJUSAT-1B             
1 63210U 25052A   26068.66363707  .00019955  00000+0  68430-3 0  9998
2 63210  97.4113 325.4613 0005550  82.1930 277.9941 15.30194857 54866
